CCSDS_OMM_VERS,COMMENT,CREATION_DATE,ORIGINATOR,OBJECT_NAME,OBJECT_ID,CENTER_NAME,REF_FRAME,TIME_SYSTEM,MEAN_ELEMENT_THEORY,EPOCH,MEAN_MOTION,ECCENTRICITY,INCLINATION,RA_OF_ASC_NODE,ARG_OF_PERICENTER,MEAN_ANOMALY,EPHEMERIS_TYPE,CLASSIFICATION_TYPE,NORAD_CAT_ID,ELEMENT_SET_NO,REV_AT_EPOCH,BSTAR,MEAN_MOTION_DOT,MEAN_MOTION_DDOT,SEMIMAJOR_AXIS,PERIOD,APOAPSIS,PERIAPSIS,OBJECT_TYPE,RCS_SIZE,COUNTRY_CODE,LAUNCH_DATE,SITE,DECAY_DATE,FILE,GP_ID,TLE_LINE0,TLE_LINE1,TLE_LINE2
2,GENERATED VIA SPACE-TRACK.ORG API,2018-10-01T04:26:11,18 SPCS,GALILEO-FM2,2011-060B,EARTH,TEME,UTC,SGP4,2018-09-30T12:36:11.818656,1.7047565,0.0002364,56.1897,58.5873,311.8462,14.7015,0,U,37847,999,4310,0.0,-1.8e-07,0,29600.129,844.695,23228.991,23214.996,PAYLOAD,LARGE,ESA,2011-10-21,FRGUI,,2338374,123536218,0 GALILEO-FM2,1 37847U 11060B   18273.52513679 -.00000018 +00000-0 +00000-0 0  9996,2 37847 056.1897 058.5873 0002364 311.8462 014.7015 01.70475650043104
2,GENERATED VIA SPACE-TRACK.ORG API,2018-10-02T14:30:22,18 SPCS,GALILEO-FM2,2011-060B,EARTH,TEME,UTC,SGP4,2018-10-02T08:02:36.240288,1.70475612,0.0002386,56.1911,58.5371,310.5967,46.7963,0,U,37847,999,4325,0.0,-2e-07,0,29600.133,844.695,23229.061,23214.935,PAYLOAD,LARGE,ESA,2011-10-21,FRGUI,,2339176,123564994,0 GALILEO-FM2,1 37847U 11060B   18275.33514167 -.00000020  00000-0  00000+0 0  9992,2 37847  56.1911  58.5371 0002386 310.5967  46.7963  1.70475612 43255
2,GENERATED VIA SPACE-TRACK.ORG API,2018-10-03T22:12:42,18 SPCS,GALILEO-FM2,2011-060B,EARTH,TEME,UTC,SGP4,2018-10-03T12:17:42.644832,1.70475597,0.0002402,56.192,58.5044,309.7407,50.1032,0,U,37847,999,4315,0.0,-2.3e-07,0,29600.135,844.695,23229.11,23214.89,PAYLOAD,LARGE,ESA,2011-10-21,FRGUI,,2339842,123608296,0 GALILEO-FM2,1 37847U 11060B   18276.51229913 -.00000023 +00000-0 +00000-0 0  9999,2 37847 056.1920 058.5044 0002402 309.7407 050.1032 01.70475597043157
2,GENERATED VIA SPACE-TRACK.ORG API,2018-10-04T16:28:19,18 SPCS,GALILEO-FM2,2011-060B,EARTH,TEME,UTC,SGP4,2018-10-04T09:33:58.689216,1.70475594,0.0002406,56.1927,58.4798,309.0461,234.7403,0,U,37847,999,4329,0.0,-2.8e-07,0,29600.135,844.695,23229.122,23214.878,PAYLOAD,LARGE,ESA,2011-10-21,FRGUI,,2340257,123619547,0 GALILEO-FM2,1 37847U 11060B   18277.39859594 -.00000028  00000-0  00000+0 0  9994,2 37847  56.1927  58.4798 0002406 309.0461 234.7403  1.70475594 43290
2,GENERATED VIA SPACE-TRACK.ORG API,2018-10-05T17:12:22,18 SPCS,GALILEO-FM2,2011-060B,EARTH,TEME,UTC,SGP4,2018-10-04T16:31:42.574080,1.70475595,0.0002413,56.193,58.4717,308.9077,52.915,0,U,37847,999,4318,0.0,-2.9e-07,0,29600.135,844.695,23229.142,23214.857,PAYLOAD,LARGE,ESA,2011-10-21,FRGUI,,2340847,123645063,0 GALILEO-FM2,1 37847U 11060B   18277.68868720 -.00000029 +00000-0 +00000-0 0  9999,2 37847 056.1930 058.4717 0002413 308.9077 052.9150 01.70475595043182
2,GENERATED VIA SPACE-TRACK.ORG API,2018-10-06T14:34:17,18 SPCS,GALILEO-FM2,2011-060B,EARTH,TEME,UTC,SGP4,2018-10-06T10:33:42.657120,1.70475608,0.0002431,56.1943,58.423,307.6431,49.0513,0,U,37847,999,4332,0.0,-4.1e-07,0,29600.133,844.695,23229.194,23214.803,PAYLOAD,LARGE,ESA,2011-10-21,FRGUI,,2341314,123667231,0 GALILEO-FM2,1 37847U 11060B   18279.44007705 -.00000041  00000-0  00000+0 0  9996,2 37847  56.1943  58.4230 0002431 307.6431  49.0513  1.70475608 43327
2,GENERATED VIA SPACE-TRACK.ORG API,2018-10-07T16:11:52,18 SPCS,GALILEO-FM2,2011-060B,EARTH,TEME,UTC,SGP4,2018-10-06T17:48:58.177728,1.70475611,0.0002429,56.1946,58.4146,307.3583,234.8425,0,U,37847,999,4321,0.0,-4.3e-07,0,29600.133,844.695,23229.188,23214.808,PAYLOAD,LARGE,ESA,2011-10-21,FRGUI,,2341567,123680819,0 GALILEO-FM2,1 37847U 11060B   18279.74234002 -.00000043 +00000-0 +00000-0 0  9994,2 37847 056.1946 058.4146 0002429 307.3583 234.8425 01.70475611043216
2,GENERATED VIA SPACE-TRACK.ORG API,2018-10-08T06:06:21,18 SPCS,GALILEO-FM2,2011-060B,EARTH,TEME,UTC,SGP4,2018-10-07T15:08:22.900704,1.70475629,0.0002445,56.1953,58.3899,306.7823,60.7013,0,U,37847,999,4323,0.0,-4.8e-07,0,29600.131,844.695,23229.233,23214.759,PAYLOAD,LARGE,ESA,2011-10-21,FRGUI,,2341916,123699131,0 GALILEO-FM2,1 37847U 11060B   18280.63082061 -.00000048 +00000-0 +00000-0 0  9995,2 37847 056.1953 058.3899 0002445 306.7823 060.7013 01.70475629043236
2,GENERATED VIA SPACE-TRACK.ORG API,2018-10-09T14:34:18,18 SPCS,GALILEO-FM2,2011-060B,EARTH,TEME,UTC,SGP4,2018-10-09T11:31:48.281952,1.70475677,0.0002475,56.1967,58.3386,305.3604,117.2685,0,U,37847,999,4338,0.0,-5.6e-07,0,29600.125,844.695,23229.316,23214.664,PAYLOAD,LARGE,ESA,2011-10-21,FRGUI,,2342612,123726819,0 GALILEO-FM2,1 37847U 11060B   18282.48041993 -.00000056  00000-0  00000+0 0  9997,2 37847  56.1967  58.3386 0002475 305.3604 117.2685  1.70475677 43389
2,GENERATED VIA SPACE-TRACK.ORG API,2018-10-11T21:59:55,18 SPCS,GALILEO-FM2,2011-060B,EARTH,TEME,UTC,SGP4,2018-10-11T10:18:56.052288,1.70475736,0.0002508,56.1982,58.2844,304.1596,234.8622,0,U,37847,999,4329,0.0,-5.6e-07,0,29600.119,844.694,23229.407,23214.56,PAYLOAD,LARGE,ESA,2011-10-21,FRGUI,,2343880,123789996,0 GALILEO-FM2,1 37847U 11060B   18284.42981542 -.00000056 +00000-0 +00000-0 0  9997,2 37847 056.1982 058.2844 0002508 304.1596 234.8622 01.70475736043291
2,GENERATED VIA SPACE-TRACK.ORG API,2018-10-12T22:32:16,18 SPCS,GALILEO-FM2,2011-060B,EARTH,TEME,UTC,SGP4,2018-10-12T05:58:01.821216,1.70475764,0.0002522,56.1988,58.2617,303.6303,17.9198,0,U,37847,999,4342,0.0,-5.5e-07,0,29600.115,844.694,23229.446,23214.515,PAYLOAD,LARGE,ESA,2011-10-21,FRGUI,,2344333,123807410,0 GALILEO-FM2,1 37847U 11060B   18285.24863219 -.00000055  00000-0  00000+0 0  9996,2 37847  56.1988  58.2617 0002522 303.6303  17.9198  1.70475764 43425
2,GENERATED VIA SPACE-TRACK.ORG API,2018-10-13T23:21:03,18 SPCS,GALILEO-FM2,2011-060B,EARTH,TEME,UTC,SGP4,2018-10-13T11:30:42.783840,1.70475801,0.0002543,56.1997,58.2276,302.9554,54.1085,0,U,37847,999,4332,0.0,-5.2e-07,0,29600.111,844.694,23229.503,23214.449,PAYLOAD,LARGE,ESA,2011-10-21,FRGUI,,2344876,123840295,0 GALILEO-FM2,1 37847U 11060B   18286.47966185 -.00000052 +00000-0 +00000-0 0  9996,2 37847 056.1997 058.2276 0002543 302.9554 054.1085 01.70475801043328
2,GENERATED VIA SPACE-TRACK.ORG API,2018-10-14T18:43:20,18 SPCS,GALILEO-FM2,2011-060B,EARTH,TEME,UTC,SGP4,2018-10-13T18:33:51.681312,1.70475804,0.0002547,56.1999,58.2194,302.913,234.4958,0,U,37847,999,4333,0.0,-5.1e-07,0,29600.111,844.694,23229.515,23214.437,PAYLOAD,LARGE,ESA,2011-10-21,FRGUI,,2345193,123854144,0 GALILEO-FM2,1 37847U 11060B   18286.77351483 -.00000051 +00000-0 +00000-0 0  9997,2 37847 056.1999 058.2194 0002547 302.9130 234.4958 01.70475804043339
2,GENERATED VIA SPACE-TRACK.ORG API,2018-10-14T22:06:33,18 SPCS,GALILEO-FM2,2011-060B,EARTH,TEME,UTC,SGP4,2018-10-14T01:48:36.614592,1.70475814,0.0002552,56.2002,58.211,302.6537,60.0443,0,U,37847,999,4334,0.0,-5e-07,0,29600.11,844.694,23229.529,23214.421,PAYLOAD,LARGE,ESA,2011-10-21,FRGUI,,2345218,123863310,0 GALILEO-FM2,1 37847U 11060B   18287.07542378 -.00000050 +00000-0 +00000-0 0  9995,2 37847 056.2002 058.2110 0002552 302.6537 060.0443 01.70475814043341
2,GENERATED VIA SPACE-TRACK.ORG API,2018-10-14T22:38:16,18 SPCS,GALILEO-FM2,2011-060B,EARTH,TEME,UTC,SGP4,2018-10-14T15:51:29.220768,1.70475826,0.0002562,56.2006,58.1949,302.3637,59.5666,0,U,37847,999,4347,0.0,-4.9e-07,0,29600.108,844.694,23229.557,23214.39,PAYLOAD,LARGE,ESA,2011-10-21,FRGUI,,2345310,123866970,0 GALILEO-FM2,1 37847U 11060B   18287.66075487 -.00000049  00000-0  00000+0 0  9999,2 37847  56.2006  58.1949 0002562 302.3637  59.5666  1.70475826 43470
2,GENERATED VIA SPACE-TRACK.ORG API,2018-10-16T16:13:10,18 SPCS,GALILEO-FM2,2011-060B,EARTH,TEME,UTC,SGP4,2018-10-15T04:24:21.819168,1.70475836,0.0002569,56.2009,58.1804,302.0931,20.7117,0,U,37847,999,4335,0.0,-4.7e-07,0,29600.107,844.694,23229.576,23214.368,PAYLOAD,LARGE,ESA,2011-10-21,FRGUI,,2346196,123893472,0 GALILEO-FM2,1 37847U 11060B   18288.18358587 -.00000047 +00000-0 +00000-0 0  9991,2 37847 056.2009 058.1804 0002569 302.0931 020.7117 01.70475836043353
2,GENERATED VIA SPACE-TRACK.ORG API,2018-10-17T04:07:56,18 SPCS,GALILEO-FM2,2011-060B,EARTH,TEME,UTC,SGP4,2018-10-16T10:10:16.453056,1.70475851,0.0002593,56.2019,58.146,301.3894,62.567,0,U,37847,999,4338,0.0,-4.4e-07,0,29600.105,844.694,23229.646,23214.295,PAYLOAD,LARGE,ESA,2011-10-21,FRGUI,,2346331,123906330,0 GALILEO-FM2,1 37847U 11060B   18289.42380154 -.00000044 +00000-0 +00000-0 0  9991,2 37847 056.2019 058.1460 0002593 301.3894 062.5670 01.70475851043387
2,GENERATED VIA SPACE-TRACK.ORG API,2018-10-17T22:44:19,18 SPCS,GALILEO-FM2,2011-060B,EARTH,TEME,UTC,SGP4,2018-10-17T17:53:16.981152,1.70475851,0.0002631,56.2028,58.1093,300.6865,154.3284,0,U,37847,999,4352,0.0,-4.1e-07,0,29600.105,844.694,23229.758,23214.183,PAYLOAD,LARGE,ESA,2011-10-21,FRGUI,,2346789,123918340,0 GALILEO-FM2,1 37847U 11060B   18290.74533543 -.00000041  00000-0  00000+0 0  9996,2 37847  56.2028  58.1093 0002631 300.6865 154.3284  1.70475851 43529
2,GENERATED VIA SPACE-TRACK.ORG API,2018-10-19T05:06:40,18 SPCS,GALILEO-FM2,2011-060B,EARTH,TEME,UTC,SGP4,2018-10-18T18:18:41.052096,1.70475846,0.0002654,56.2035,58.0811,300.229,59.3371,0,U,37847,999,4341,0.0,-4e-07,0,29600.106,844.694,23229.827,23214.115,PAYLOAD,LARGE,ESA,2011-10-21,FRGUI,,2347328,123947462,0 GALILEO-FM2,1 37847U 11060B   18291.76297514 -.00000040 +00000-0 +00000-0 0  9994,2 37847 056.2035 058.0811 0002654 300.2290 059.3371 01.70475846043410
2,GENERATED VIA SPACE-TRACK.ORG API,2018-10-21T06:40:17,18 SPCS,GALILEO-FM2,2011-060B,EARTH,TEME,UTC,SGP4,2018-10-21T02:33:40.095648,1.70475802,0.0002717,56.2053,58.0161,299.4165,58.5611,0,U,37847,999,4357,0.0,-3.6e-07,0,29600.111,844.694,23230.018,23213.934,PAYLOAD,LARGE,ESA,2011-10-21,FRGUI,,2348410,124001130,0 GALILEO-FM2,1 37847U 11060B   18294.10671407 -.00000036  00000-0  00000+0 0  9996,2 37847  56.2053  58.0161 0002717 299.4165  58.5611  1.70475802 43575
